     3.00           N                   E                   RINEX VERSION / TYPE
BRD_USR             ESA                 20190112 061729  UTCPGM / RUN BY / DATE
 GAL   4.0250E+01  4.2969E-02 -8.8501E-04  0.0000E+00       IONOSPHERIC CORR
GAUT  2.7939677238E-09-1.776356839E-15 518400 2035 GSTB   0 TIME SYSTEM CORR
GPGA  2.1827872843E-09 1.199040867E-14 518400 2035 GSTB   0 TIME SYSTEM CORR
                                                            END OF HEADER
E09 2019 01 12 04 40 00 6.560807873029E-03-1.131184035330E-11 0.000000000000E+00
     1.240000000000E+02-3.384375000000E+01 2.982267080537E-09 1.052134120466E+00
    -1.529231667519E-06 2.394088078290E-04 1.095049083233E-05 5.440618751526E+03
     5.352000000000E+05-9.499490261078E-08 1.232984607489E+00 1.490116119385E-08
     9.584630267351E-01 1.058750000000E+02 7.681400134862E-02-5.368080744967E-09
     1.492919328940E-10 5.210000000000E+02 2.035000000000E+03 0.000000000000E+00
     3.120000000000E+00 0.000000000000E+00-3.259629011154E-09-3.958120942116E-09
     5.358850000000E+05 0.000000000000E+00 0.000000000000E+00 0.000000000000E+00
E11 2019 01 12 04 40 00 5.719612701796E-03 8.242295734817E-13 0.000000000000E+00
     1.240000000000E+02 2.546875000000E+01 3.063341886200E-09-2.707869777965E+00
     1.152977347374E-06 2.733491128311E-04 4.092231392860E-06 5.440597888947E+03
     5.352000000000E+05-7.450580596924E-08-8.637144192296E-01-2.980232238770E-08
     9.819183009757E-01 2.607812500000E+02-3.506252929508E-01-5.709880696593E-09
     1.803646557690E-10 5.210000000000E+02 2.035000000000E+03 0.000000000000E+00
     3.120000000000E+00 0.000000000000E+00-1.839362084866E-08-1.979060471058E-08
     5.358850000000E+05 0.000000000000E+00 0.000000000000E+00 0.000000000000E+00
E12 2019 01 12 04 40 00 5.923560820520E-03 8.428457931586E-11 0.000000000000E+00
     1.240000000000E+02 3.059375000000E+01 3.098343344151E-09-1.396553726628E+00
     1.490116119385E-06 3.974577412009E-04 3.973022103310E-06 5.440601701736E+03
     5.352000000000E+05 5.401670932770E-08-8.637298515524E-01-9.313225746155E-08
     9.819317261749E-01 2.625937500000E+02-8.583093304516E-01-5.810956335370E-09
     2.153661137202E-10 5.210000000000E+02 2.035000000000E+03 0.000000000000E+00
     3.120000000000E+00 0.000000000000E+00-1.583248376846E-08-1.629814505577E-08
     5.358850000000E+05 0.000000000000E+00 0.000000000000E+00 0.000000000000E+00
E13 2019 01 12 04 40 00 3.816278185695E-04 4.689582056017E-13 0.000000000000E+00
     1.240000000000E+02 2.771875000000E+01 3.011911172476E-09 1.599557879938E+00
     1.270323991776E-06 3.432588418946E-04 3.149732947350E-06 5.440597749710E+03
     5.352000000000E+05 2.980232238770E-08-8.690034181433E-01-1.303851604462E-08
     9.851601669382E-01 2.840937500000E+02-1.509945876244E+00-5.749168047354E-09
     1.739358165535E-10 5.210000000000E+02 2.035000000000E+03 0.000000000000E+00
    -1.000000000000E+00 4.550000000000E+02-4.423782229424E-09-5.355104804039E-09
     5.358850000000E+05 0.000000000000E+00 0.000000000000E+00 0.000000000000E+00
E19 2019 01 12 04 40 00-9.187380783260E-06 2.842170943040E-13 0.000000000000E+00
     1.240000000000E+02-2.771875000000E+01 3.104415025632E-09 4.194430235770E-01
    -1.322478055954E-06 1.315592089668E-04 1.243688166142E-05 5.440619873047E+03
     5.352000000000E+05 4.284083843231E-08 1.238340451519E+00 1.490116119385E-08
     9.582173735312E-01 7.162500000000E+01 2.359696158702E+00-5.514158258253E-09
     1.150047904111E-10 5.210000000000E+02 2.035000000000E+03 0.000000000000E+00
     3.120000000000E+00 0.000000000000E+00-8.614733815193E-09-8.847564458847E-09
     5.358850000000E+05 0.000000000000E+00 0.000000000000E+00 0.000000000000E+00
E25 2019 01 12 04 40 00 1.926401222590E-03-1.138289462688E-11 0.000000000000E+00
     1.240000000000E+02-6.343750000000E+00 2.847261457011E-09-4.052586064533E-01
    -4.712492227554E-07 1.921926159412E-04 6.783753633499E-06 5.440623390198E+03
     5.352000000000E+05 1.676380634308E-08-2.951632030019E+00-2.048909664154E-08
     9.897190468452E-01 2.063125000000E+02-1.323109914027E+00-5.487371428189E-09
    -2.882262914962E-10 5.210000000000E+02 2.035000000000E+03 0.000000000000E+00
     3.120000000000E+00 0.000000000000E+00-1.396983861923E-09-1.629814505577E-09
     5.358850000000E+05 0.000000000000E+00 0.000000000000E+00 0.000000000000E+00
E26 2019 01 12 04 40 00 5.029521184042E-03-4.338573944551E-11 0.000000000000E+00
     1.240000000000E+02 3.109375000000E+01 3.166560471382E-09 1.316014860821E+00
     1.445412635803E-06 3.195637837052E-04 3.453344106674E-06 5.440605651855E+03
     5.352000000000E+05 9.313225746155E-09-8.600930664657E-01-1.676380634308E-08
     9.782761835526E-01 2.762187500000E+02-2.008403476672E+00-5.824885487004E-09
     2.239378993409E-10 5.210000000000E+02 2.035000000000E+03 0.000000000000E+00
     3.120000000000E+00 0.000000000000E+00 1.164153218269E-09 1.164153218269E-09
     5.358850000000E+05 0.000000000000E+00 0.000000000000E+00 0.000000000000E+00
E27 2019 01 12 04 40 00 5.514554795809E-04-7.673861546209E-12 0.000000000000E+00
     1.240000000000E+02 1.968750000000E+00 2.766900966817E-09 3.028622064300E+00
     8.568167686462E-08 1.890575513244E-04 7.543712854385E-06 5.440623390198E+03
     5.352000000000E+05-2.793967723846E-08-2.951607188207E+00-2.048909664154E-08
     9.896867134298E-01 1.895312500000E+02-8.301134584718E-01-5.389153051285E-09
    -3.007268121931E-10 5.210000000000E+02 2.035000000000E+03 0.000000000000E+00
     3.120000000000E+00 0.000000000000E+00-2.793967723846E-09-3.259629011154E-09
     5.358850000000E+05 0.000000000000E+00 0.000000000000E+00 0.000000000000E+00
E30 2019 01 12 04 40 00 5.195387930144E-03-3.045386165468E-11 0.000000000000E+00
     1.240000000000E+02-3.906250000000E+00 2.795116427819E-09 2.395059289136E+00
    -1.173466444016E-07 3.118084277958E-04 7.506459951401E-06 5.440615671158E+03
     5.352000000000E+05-2.235174179077E-08-2.945608782281E+00 3.539025783539E-08
     9.877030140694E-01 1.915625000000E+02 5.692130143268E-01-5.415225565881E-09
    -3.332281660049E-10 5.210000000000E+02 2.035000000000E+03 0.000000000000E+00
     3.120000000000E+00 0.000000000000E+00-3.026798367500E-09-3.725290298462E-09
     5.358850000000E+05 0.000000000000E+00 0.000000000000E+00 0.000000000000E+00
E33 2019 01 12 04 40 00 8.479057578370E-04 2.842170943040E-14 0.000000000000E+00
     1.240000000000E+02 3.350000000000E+01 3.103700710164E-09-4.926047036489E-02
     1.622363924980E-06 3.684239927679E-04 3.891065716743E-06 5.440594642639E+03
     5.352000000000E+05 4.097819328308E-08-8.690392172116E-01 9.313225746155E-09
     9.851553393085E-01 2.700937500000E+02-1.434673312176E+00-5.795598552800E-09
     2.514390448740E-10 5.210000000000E+02 2.035000000000E+03 0.000000000000E+00
     3.120000000000E+00 4.550000000000E+02-8.381903171539E-09-9.546056389809E-09
     5.358850000000E+05 0.000000000000E+00 0.000000000000E+00 0.000000000000E+00
E36 2019 01 12 04 40 00 7.606697618030E-04-4.433786671143E-12 0.000000000000E+00
     1.240000000000E+02 2.656250000000E+01 2.998696336310E-09-2.295822172472E+00
     1.279637217522E-06 3.334711072966E-04 3.445893526077E-06 5.440598363876E+03
     5.352000000000E+05-6.332993507385E-08-8.690134844826E-01 3.725290298462E-09
     9.851643186997E-01 2.772500000000E+02-1.542633822514E+00-5.681308077857E-09
     2.189376910622E-10 5.210000000000E+02 2.035000000000E+03 0.000000000000E+00
     3.120000000000E+00 4.550000000000E+02 1.164153218269E-09 1.396983861923E-09
     5.358850000000E+05 0.000000000000E+00 0.000000000000E+00 0.000000000000E+00
E01 2019 01 12 04 40 00-5.189462099224E-04-8.157030606526E-12 0.000000000000E+00
     1.240000000000E+02-2.375000000000E+00 2.877262706684E-09 1.259744552229E+00
    -1.527369022369E-07 9.845057502389E-05 7.120892405510E-06 5.440614135742E+03
     5.352000000000E+05 2.793967723846E-08-2.949014322444E+00 1.303851604462E-08
     9.901510085182E-01 2.033750000000E+02-6.495200719867E-01-5.470585014681E-09
    -3.543004723225E-10 2.580000000000E+02 2.035000000000E+03 0.000000000000E+00
     3.120000000000E+00 0.000000000000E+00-4.423782229424E-09 0.000000000000E+00
     5.359000000000E+05 0.000000000000E+00 0.000000000000E+00 0.000000000000E+00
E02 2019 01 12 04 40 00 4.297762643546E-05 1.591615728103E-12 0.000000000000E+00
     1.240000000000E+02-1.312500000000E+00 2.797973689692E-09-2.357706693982E+00
    -1.285225152969E-07 2.647839719430E-04 7.471069693565E-06 5.440620323181E+03
     5.352000000000E+05-3.352761268616E-08-2.949047123993E+00-5.215406417847E-08
     9.901586566539E-01 1.957187500000E+02-1.753772730759E-01-5.465227648668E-09
    -3.167989102319E-10 2.580000000000E+02 2.035000000000E+03 0.000000000000E+00
     3.120000000000E+00 0.000000000000E+00-6.286427378654E-09 0.000000000000E+00
     5.359000000000E+05 0.000000000000E+00 0.000000000000E+00 0.000000000000E+00
E05 2019 01 12 04 40 00 1.265380997211E-04-6.494360604847E-12 0.000000000000E+00
     1.240000000000E+02-2.362500000000E+01 3.131559013431E-09-1.276445115303E+00
    -1.102685928345E-06 1.317758578807E-04 1.080334186554E-05 5.440621023178E+03
     5.352000000000E+05 2.980232238770E-08 1.241582866076E+00 4.470348358154E-08
     9.524583361128E-01 1.054375000000E+02 1.621762789318E+00-5.495586056075E-09
     1.925080187317E-10 2.580000000000E+02 2.035000000000E+03 0.000000000000E+00
     3.120000000000E+00 0.000000000000E+00-1.164153218269E-09 0.000000000000E+00
     5.359000000000E+05 0.000000000000E+00 0.000000000000E+00 0.000000000000E+00
